{"type": "FeatureCollection", "features": [ {"type": "Feature", "properties": {"norad_id": 40701, "name": "GAOFEN-8", "group": "resource", "lat": 8.630214327128181, "lon": 171.65035379999827, "alt_km": 453.4566657964351, "timestamp": "2025-12-20T07:33:50.460861+00:00", "meta": {"OBJECT_NAME": "GAOFEN-8", "OBJECT_ID": "2015-030A", "EPOCH": "2025-12-19T22:09:43.933824", "MEAN_MOTION": 15.38783737, "ECCENTRICITY": 0.00118921, "INCLINATION": 97.6902, "RA_OF_ASC_NODE": 172.4147, "ARG_OF_PERICENTER": 113.6641, "MEAN_ANOMALY": 246.5853, "EPHEMERIS_TYPE": 0, "CLASSIFICATION_TYPE": "U", "NORAD_CAT_ID": 40701, "ELEMENT_SET_NO": 999, "REV_AT_EPOCH": 58381, "BSTAR": 0.00044023853, "MEAN_MOTION_DOT": 0.00016848, "MEAN_MOTION_DDOT": 0}, "tle": {"line1": "1 40701U 15030A   25353.92342516  .00016848  00000+0  44024-3 0  9994", "line2": "2 40701  97.6902 172.4147 0011892 113.6641 246.5853 15.38783737583816"}}, "geometry": {"type": "Point", "coordinates": [171.65035379999827, 8.630214327128181]}}, {"type": "Feature", "properties": {"norad_id": 40718, "name": "CARBONITE 1 (CBNT-1)", "group": "resource", "lat": -37.574336352930345, "lon": -10.902448605632612, "alt_km": 621.9477608616326, "timestamp": "2025-12-20T07:33:50.460871+00:00", "meta": {"OBJECT_NAME": "CARBONITE 1 (CBNT-1)", "OBJECT_ID": "2015-032D", "EPOCH": "2025-12-19T22:29:14.944992", "MEAN_MOTION": 14.82777585, "ECCENTRICITY": 0.00149518, "INCLINATION": 97.6394, "RA_OF_ASC_NODE": 174.6635, "ARG_OF_PERICENTER": 157.8528, "MEAN_ANOMALY": 202.3335, "EPHEMERIS_TYPE": 0, "CLASSIFICATION_TYPE": "U", "NORAD_CAT_ID": 40718, "ELEMENT_SET_NO": 999, "REV_AT_EPOCH": 56277, "BSTAR": 0.00029893883, "MEAN_MOTION_DOT": 2.37e-05, "MEAN_MOTION_DDOT": 0}, "tle": {"line1": "1 40718U 15032D   25353.93697853  .00002370  00000+0  29894-3 0  9995", "line2": "2 40718  97.6394 174.6635 0014951 157.8528 202.3335 14.82777585562777"}}, "geometry": {"type": "Point", "coordinates": [-10.902448605632612, -37.574336352930345]}}, {"type": "Feature", "properties": {"norad_id": 40878, "name": "YAOGAN-27", "group": "resource", "lat": 55.77285332870408, "lon": -31.596644503451717, "alt_km": 1199.3041724477262, "timestamp": "2025-12-20T07:33:50.460883+00:00", "meta": {"OBJECT_NAME": "YAOGAN-27", "OBJECT_ID": "2015-040A", "EPOCH": "2025-12-19T22:09:07.251840", "MEAN_MOTION": 13.1606065, "ECCENTRICITY": 0.00075909, "INCLINATION": 100.1006, "RA_OF_ASC_NODE": 343.2181, "ARG_OF_PERICENTER": 268.8332, "MEAN_ANOMALY": 91.1912, "EPHEMERIS_TYPE": 0, "CLASSIFICATION_TYPE": "U", "NORAD_CAT_ID": 40878, "ELEMENT_SET_NO": 999, "REV_AT_EPOCH": 49408, "BSTAR": -0.00065979375, "MEAN_MOTION_DOT": -2.93e-06, "MEAN_MOTION_DDOT": 0}, "tle": {"line1": "1 40878U 15040A   25353.92300060 -.00000293  00000+0 -65979-3 0  9999", "line2": "2 40878 100.1006 343.2181 0007590 268.8332  91.1912 13.16060650494088"}}, "geometry": {"type": "Point", "coordinates": [-31.596644503451717, 55.77285332870408]}}, {"type": "Feature", "properties": {"norad_id": 40894, "name": "GAOFEN-9 01", "group": "resource", "lat": 49.51672349868862, "lon": -137.99299329782573, "alt_km": 626.8115085666113, "timestamp": "2025-12-20T07:33:50.460893+00:00", "meta": {"OBJECT_NAME": "GAOFEN-9 01", "OBJECT_ID": "2015-047A", "EPOCH": "2025-12-19T22:52:56.065152", "MEAN_MOTION": 14.82438669, "ECCENTRICITY": 0.00278129, "INCLINATION": 97.6533, "RA_OF_ASC_NODE": 32.5972, "ARG_OF_PERICENTER": 11.1374, "MEAN_ANOMALY": 349.0449, "EPHEMERIS_TYPE": 0, "CLASSIFICATION_TYPE": "U", "NORAD_CAT_ID": 40894, "ELEMENT_SET_NO": 999, "REV_AT_EPOCH": 55363, "BSTAR": 0.00010379105, "MEAN_MOTION_DOT": 7.86e-06, "MEAN_MOTION_DDOT": 0}, "tle": {"line1": "1 40894U 15047A   25353.95342668  .00000786  00000+0  10379-3 0  9996", "line2": "2 40894  97.6533  32.5972 0027812  11.1374 349.0449 14.82438669553631"}}, "geometry": {"type": "Point", "coordinates": [-137.99299329782573, 49.51672349868862]}}, {"type": "Feature", "properties": {"norad_id": 41026, "name": "YAOGAN-28", "group": "resource", "lat": -16.126652386538932, "lon": 134.01268441149642, "alt_km": 501.36433589881653, "timestamp": "2025-12-20T07:33:50.460904+00:00", "meta": {"OBJECT_NAME": "YAOGAN-28", "OBJECT_ID": "2015-064A", "EPOCH": "2025-12-19T22:10:59.608128", "MEAN_MOTION": 15.24463093, "ECCENTRICITY": 0.0012612, "INCLINATION": 97.2809, "RA_OF_ASC_NODE": 131.5143, "ARG_OF_PERICENTER": 103.1502, "MEAN_ANOMALY": 257.1144, "EPHEMERIS_TYPE": 0, "CLASSIFICATION_TYPE": "U", "NORAD_CAT_ID": 41026, "ELEMENT_SET_NO": 999, "REV_AT_EPOCH": 56334, "BSTAR": 0.00023856578, "MEAN_MOTION_DOT": 5.801e-05, "MEAN_MOTION_DDOT": 0}, "tle": {"line1": "1 41026U 15064A   25353.92430102  .00005801  00000+0  23857-3 0  9999", "line2": "2 41026  97.2809 131.5143 0012612 103.1502 257.1144 15.24463093563344"}}, "geometry": {"type": "Point", "coordinates": [134.01268441149642, -16.126652386538932]}}, {"type": "Feature", "properties": {"norad_id": 41038, "name": "YAOGAN-29", "group": "resource", "lat": 29.55635293114382, "lon": 12.924876223277911, "alt_km": 619.0562955750365, "timestamp": "2025-12-20T07:33:50.460915+00:00", "meta": {"OBJECT_NAME": "YAOGAN-29", "OBJECT_ID": "2015-069A", "EPOCH": "2025-12-19T23:19:56.900640", "MEAN_MOTION": 14.8289176, "ECCENTRICITY": 4.817e-05, "INCLINATION": 98.0213, "RA_OF_ASC_NODE": 17.1674, "ARG_OF_PERICENTER": 177.3167, "MEAN_ANOMALY": 182.8049, "EPHEMERIS_TYPE": 0, "CLASSIFICATION_TYPE": "U", "NORAD_CAT_ID": 41038, "ELEMENT_SET_NO": 999, "REV_AT_EPOCH": 54406, "BSTAR": 0.00010904431, "MEAN_MOTION_DOT": 8.3e-06, "MEAN_MOTION_DDOT": 0}, "tle": {"line1": "1 41038U 15069A   25353.97218635  .00000830  00000+0  10904-3 0  9993", "line2": "2 41038  98.0213  17.1674 0000481 177.3167 182.8049 14.82891760544069"}}, "geometry": {"type": "Point", "coordinates": [12.924876223277911, 29.55635293114382]}}, {"type": "Feature", "properties": {"norad_id": 41167, "name": "KENT RIDGE 1", "group": "resource", "lat": 5.421998138249307, "lon": 175.72679752405656, "alt_km": 501.95808783395296, "timestamp": "2025-12-20T07:33:50.460925+00:00", "meta": {"OBJECT_NAME": "KENT RIDGE 1", "OBJECT_ID": "2015-077B", "EPOCH": "2025-12-19T15:44:19.065408", "MEAN_MOTION": 15.21687, "ECCENTRICITY": 0.0008521, "INCLINATION": 14.9781, "RA_OF_ASC_NODE": 159.8192, "ARG_OF_PERICENTER": 228.6, "MEAN_ANOMALY": 131.3589, "EPHEMERIS_TYPE": 0, "CLASSIFICATION_TYPE": "U", "NORAD_CAT_ID": 41167, "ELEMENT_SET_NO": 999, "REV_AT_EPOCH": 55369, "BSTAR": 0.00012437, "MEAN_MOTION_DOT": 3.652e-05, "MEAN_MOTION_DDOT": 0}, "tle": {"line1": "1 41167U 15077B   25353.65577622  .00003652  00000+0  12437-3 0  9992", "line2": "2 41167  14.9781 159.8192 0008521 228.6000 131.3589 15.21687000553698"}}, "geometry": {"type": "Point", "coordinates": [175.72679752405656, 5.421998138249307]}}, {"type": "Feature", "properties": {"norad_id": 41194, "name": "GAOFEN-4", "group": "resource", "lat": -0.15615004800375779, "lon": -51.657453546292956, "alt_km": 35794.25995015612, "timestamp": "2025-12-20T07:33:50.460939+00:00", "meta": {"OBJECT_NAME": "GAOFEN-4", "OBJECT_ID": "2015-083A", "EPOCH": "2025-12-19T15:27:26.627616", "MEAN_MOTION": 1.00273138, "ECCENTRICITY": 0.0002945, "INCLINATION": 0.1878, "RA_OF_ASC_NODE": 81.7841, "ARG_OF_PERICENTER": 93.4275, "MEAN_ANOMALY": 250.8523, "EPHEMERIS_TYPE": 0, "CLASSIFICATION_TYPE": "U", "NORAD_CAT_ID": 41194, "ELEMENT_SET_NO": 999, "REV_AT_EPOCH": 3672, "BSTAR": 0, "MEAN_MOTION_DOT": -3.11e-06, "MEAN_MOTION_DDOT": 0}, "tle": {"line1": "1 41194U 15083A   25353.64405819 -.00000311  00000+0  00000+0 0  9995", "line2": "2 41194   0.1878  81.7841 0002945  93.4275 250.8523  1.00273138 36722"}}, "geometry": {"type": "Point", "coordinates": [-51.657453546292956, -0.15615004800375779]}}, {"type": "Feature", "properties": {"norad_id": 41240, "name": "JASON-3", "group": "resource", "lat": 32.849372835884985, "lon": -54.78650531082391, "alt_km": 1311.352800722314, "timestamp": "2025-12-20T07:33:50.460950+00:00", "meta": {"OBJECT_NAME": "JASON-3", "OBJECT_ID": "2016-002A", "EPOCH": "2025-12-19T21:30:01.113408", "MEAN_MOTION": 12.87626871, "ECCENTRICITY": 0.00072145, "INCLINATION": 66.0398, "RA_OF_ASC_NODE": 142.7791, "ARG_OF_PERICENTER": 271.2454, "MEAN_ANOMALY": 88.7738, "EPHEMERIS_TYPE": 0, "CLASSIFICATION_TYPE": "U", "NORAD_CAT_ID": 41240, "ELEMENT_SET_NO": 999, "REV_AT_EPOCH": 46416, "BSTAR": -3.457952e-06, "MEAN_MOTION_DOT": -6.3e-07, "MEAN_MOTION_DDOT": 0}, "tle": {"line1": "1 41240U 16002A   25353.89584622 -.00000063  00000+0 -34580-5 0  9997", "line2": "2 41240  66.0398 142.7791 0007214 271.2454  88.7738 12.87626871464165"}}, "geometry": {"type": "Point", "coordinates": [-54.78650531082391, 32.849372835884985]}}, {"type": "Feature", "properties": {"norad_id": 41335, "name": "SENTINEL-3A", "group": "resource", "lat": 0.12517419344925715, "lon": 59.20278763629486, "alt_km": 805.6046088686089, "timestamp": "2025-12-20T07:33:50.460961+00:00", "meta": {"OBJECT_NAME": "SENTINEL-3A", "OBJECT_ID": "2016-011A", "EPOCH": "2025-12-19T21:27:52.916544", "MEAN_MOTION": 14.26733263, "ECCENTRICITY": 9.07e-05, "INCLINATION": 98.6305, "RA_OF_ASC_NODE": 58.8069, "ARG_OF_PERICENTER": 93.6014, "MEAN_ANOMALY": 266.527, "EPHEMERIS_TYPE": 0, "CLASSIFICATION_TYPE": "U", "NORAD_CAT_ID": 41335, "ELEMENT_SET_NO": 999, "REV_AT_EPOCH": 51249, "BSTAR": 5.9500005e-05, "MEAN_MOTION_DOT": 1e-06, "MEAN_MOTION_DDOT": 0}, "tle": {"line1": "1 41335U 16011A   25353.89436246  .00000100  00000+0  59500-4 0  9998", "line2": "2 41335  98.6305  58.8069 0000907  93.6014 266.5270 14.26733263512490"}}, "geometry": {"type": "Point", "coordinates": [59.20278763629486, 0.12517419344925715]}}]}